NORAD_CAT_ID,OBJECT_NAME,OBJECT_TYPE,EPOCH,MEAN_MOTION,ECCENTRICITY,INCLINATION,RA_OF_ASC_NODE,ARG_OF_PERICENTER,MEAN_ANOMALY,BSTAR,MEAN_MOTION_DOT,MEAN_MOTION_DDOT,TLE_LINE0,TLE_LINE1,TLE_LINE2,SEMIMAJOR_AXIS,PERIOD,APOGEE,PERIGEE,DECAYED
56492.0,STARLINK-5846,PAYLOAD,2023-11-25 14:00:01,15.17044077,0.0003414,70.0019,50.3958,279.8436,56.6665,-0.048334,-0.00890189,0.0,0 STARLINK-5846,1 56492U 23064AW  23329.58334491 -.00890189  00000-0 -48334-1 0  9997,2 56492  70.0019  50.3958 0003414 279.8436  56.6665 15.17044077  5999,6892.917,94.921,517.135,512.429,0.0
56492.0,STARLINK-5846,PAYLOAD,2023-11-26 00:00:00,15.16221498,0.0003304,70.002,49.3151,278.2546,172.5754,-0.049505,-0.00890482,0.0,0 STARLINK-5846,1 56492U 23064AW  23330.00001157 -.00890482  00000-0 -49505-1 0  9993,2 56492  70.0020  49.3151 0003304 278.2546 172.5754 15.16221498  6066,6895.41,94.973,519.553,514.996,0.0
56492.0,STARLINK-5846,PAYLOAD,2023-11-26 06:00:00,15.15768946,0.0003371,70.0021,48.6675,275.5849,99.2279,-0.052334,-0.00926486,0.0,0 STARLINK-5846,1 56492U 23064AW  23330.25001157 -.00926486  00000-0 -52334-1 0  9998,2 56492  70.0021  48.6675 0003371 275.5849  99.2279 15.15768946 31596,6896.782,95.001,520.972,516.322,0.0
56492.0,STARLINK-5846,PAYLOAD,2023-11-26 14:00:01,15.15088727,0.0003416,70.0019,47.8046,281.9407,110.8738,-0.05121,-0.0089182,0.0,0 STARLINK-5846,1 56492U 23064AW  23330.58334491 -.00891820  00000-0 -51210-1 0  9999,2 56492  70.0019  47.8046 0003416 281.9407 110.8738 15.15088727  5938,6898.846,95.044,523.068,518.355,0.0
56492.0,STARLINK-5846,PAYLOAD,2023-11-26 22:00:00,15.14458494,0.0003309,70.0018,46.9425,278.416,131.5989,-0.055647,-0.00947441,0.0,0 STARLINK-5846,1 56492U 23064AW  23330.91667824 -.00947441  00000-0 -55647-1 0  9994,2 56492  70.0018  46.9425 0003309 278.4160 131.5989 15.14458494  5980,6900.76,95.083,524.908,520.342,0.0
56492.0,STARLINK-5846,PAYLOAD,2023-11-27 06:00:00,15.13816213,0.0003262,70.002,46.0815,273.8511,152.5718,-0.055663,-0.00931885,0.0,0 STARLINK-5846,1 56492U 23064AW  23331.25001157 -.00931885  00000-0 -55663-1 0  9996,2 56492  70.0020  46.0815 0003262 273.8511 152.5718 15.13816213 31746,6902.712,95.124,526.828,522.325,0.0
56492.0,STARLINK-5846,PAYLOAD,2023-11-27 14:00:01,15.13129441,0.0003309,70.0018,45.2212,279.8109,162.2691,-0.05386,-0.00887756,0.0,0 STARLINK-5846,1 56492U 23064AW  23331.58334491 -.00887756  00000-0 -53860-1 0  9996,2 56492  70.0018  45.2212 0003309 279.8109 162.2691 15.13129441  5992,6904.8,95.167,528.95,524.38,0.0
56492.0,STARLINK-5846,PAYLOAD,2023-11-27 22:00:00,15.12497249,0.0003246,70.0017,44.3617,276.6104,180.3231,-0.058134,-0.00937392,0.0,0 STARLINK-5846,1 56492U 23064AW  23331.91667824 -.00937392  00000-0 -58134-1 0  9993,2 56492  70.0017  44.3617 0003246 276.6104 180.3231 15.12497249  5983,6906.724,95.207,530.831,526.347,0.0
56492.0,STARLINK-5846,PAYLOAD,2023-11-28 06:00:00,15.11860985,0.0003186,70.0018,43.5032,274.2792,196.7155,-0.059167,-0.00937228,0.0,0 STARLINK-5846,1 56492U 23064AW  23332.25001157 -.00937228  00000-0 -59167-1 0  9997,2 56492  70.0018  43.5032 0003186 274.2792 196.7155 15.11860985 31891,6908.662,95.247,532.728,528.326,0.0
56492.0,STARLINK-5846,PAYLOAD,2023-11-28 14:00:01,15.11171218,0.0003239,70.0015,42.6455,280.8294,203.4747,-0.056669,-0.00884543,0.0,0 STARLINK-5846,1 56492U 23064AW  23332.58334491 -.00884543  00000-0 -56669-1 0  9998,2 56492  70.0015  42.6455 0003239 280.8294 203.4747 15.11171218  5984,6910.764,95.29,534.867,530.391,0.0
56492.0,STARLINK-5846,PAYLOAD,2023-11-28 20:00:01,15.10723647,0.0003271,70.0012,42.0027,279.1103,124.6388,-0.063166,-0.00966961,0.0,0 STARLINK-5846,1 56492U 23064AW  23332.83334491 -.00966961  00000-0 -63166-1 0  9991,2 56492  70.0012  42.0027 0003271 279.1103 124.6388 15.10723647  6025,6912.129,95.319,536.255,531.733,0.0
56492.0,STARLINK-5846,PAYLOAD,2023-11-29 14:00:01,15.09212873,0.0003185,70.0012,40.0774,281.4615,238.0266,-0.059614,-0.00881668,0.0,0 STARLINK-5846,1 56492U 23064AW  23333.58334491 -.00881668  00000-0 -59614-1 0  9997,2 56492  70.0012  40.0774 0003185 281.4615 238.0266 15.09212873 32093,6916.741,95.414,540.809,536.403,0.0
56492.0,STARLINK-5846,PAYLOAD,2023-11-30 06:00:00,15.07950642,0.0003103,70.0012,38.3696,274.918,264.0962,-0.06642,-0.00943848,0.0,0 STARLINK-5846,1 56492U 23064AW  23334.25001157 -.00943848  00000-0 -66420-1 0  9994,2 56492  70.0012  38.3696 0003103 274.9180 264.0962 15.07950642 32194,6920.6,95.494,544.613,540.318,0.0
56492.0,STARLINK-5846,PAYLOAD,2023-12-01 14:00:01,15.05298128,0.0003109,70.0007,34.9639,278.5359,290.1974,-0.066132,-0.00879342,0.0,0 STARLINK-5846,1 56492U 23064AW  23335.58334491 -.00879342  00000-0 -66132-1 0  9998,2 56492  70.0007  34.9639 0003109 278.5359 290.1974 15.05298128 32398,6928.728,95.662,552.747,548.439,0.0
56492.0,STARLINK-5846,PAYLOAD,2023-12-01 22:00:00,15.04656216,0.0003069,70.0005,34.1147,272.6864,301.5167,-0.070098,-0.00913418,0.0,0 STARLINK-5846,1 56492U 23064AW  23335.91667824 -.00913418  00000-0 -70098-1 0  9993,2 56492  70.0005  34.1147 0003069 272.6864 301.5167 15.04656216  5951,6930.698,95.703,554.69,550.436,0.0
56492.0,STARLINK-5846,PAYLOAD,2023-12-02 06:00:00,15.04036942,0.0003054,70.0007,33.2663,270.3902,308.4816,-0.073849,-0.00943939,0.0,0 STARLINK-5846,1 56492U 23064AW  23336.25001157 -.00943939  00000-0 -73849-1 0  9990,2 56492  70.0007  33.2663 0003054 270.3902 308.4816 15.04036942 32492,6932.6,95.742,556.583,552.348,0.0
56492.0,STARLINK-5846,PAYLOAD,2023-12-02 14:00:01,15.03342313,0.0003105,70.0006,32.4185,277.5868,305.2085,-0.069876,-0.00881485,0.0,0 STARLINK-5846,1 56492U 23064AW  23336.58334491 -.00881485  00000-0 -69876-1 0  9998,2 56492  70.0006  32.4185 0003105 277.5868 305.2085 15.03342313  5942,6934.736,95.787,558.754,554.448,0.0
56492.0,STARLINK-5846,PAYLOAD,2023-12-02 22:00:00,15.02695978,0.0003084,70.0004,31.5719,272.2692,313.6495,-0.073279,-0.0090665,0.0,0 STARLINK-5846,1 56492U 23064AW  23336.91667824 -.00906650  00000-0 -73279-1 0  9998,2 56492  70.0004  31.5719 0003084 272.2692 313.6495 15.02695978  5895,6936.724,95.828,560.728,556.45,0.0
56492.0,STARLINK-5846,PAYLOAD,2023-12-03 14:00:01,15.01385282,0.0003141,70.0007,29.8809,277.1195,312.6973,-0.073608,-0.00881547,0.0,0 STARLINK-5846,1 56492U 23064AW  23337.58334491 -.00881547  00000-0 -73608-1 0  9996,2 56492  70.0007  29.8809 0003141 277.1195 312.6973 15.01385282 32695,6940.761,95.911,564.806,560.446,0.0
56492.0,STARLINK-5846,PAYLOAD,2023-12-04 06:00:00,15.00097273,0.0003073,70.0008,28.1935,270.3967,320.1772,-0.076472,-0.00885022,0.0,0 STARLINK-5846,1 56492U 23064AW  23338.25001157 -.00885022  00000-0 -76472-1 0  9995,2 56492  70.0008  28.1935 0003073 270.3967 320.1772 15.00097273 32795,6944.733,95.994,568.732,564.464,0.0
56492.0,STARLINK-5846,PAYLOAD,2023-12-04 14:00:01,14.99311653,0.0003064,70.0007,27.351,278.5526,311.2575,-0.0012841,-0.00015775,0.0,0 STARLINK-5846,1 56492U 23064AW  23338.58334491 -.00015775  00000-0 -12841-2 0  9992,2 56492  70.0007  27.3510 0003064 278.5526 311.2575 14.99311653 32841,6947.159,96.044,571.152,566.895,0.0
56492.0,STARLINK-5846,PAYLOAD,2023-12-04 16:00:01,14.99306644,0.0003052,70.0004,27.1404,277.5861,41.9534,-0.001482,-0.00018184,0.0,0 STARLINK-5846,1 56492U 23064AW  23338.66668981 -.00018184  00000-0 -14820-2 0  9991,2 56492  70.0004  27.1404 0003052 277.5861  41.9534 14.99306644  5774,6947.174,96.044,571.16,566.919,0.0
56492.0,STARLINK-5846,PAYLOAD,2023-12-04 22:00:00,14.99267859,0.0002997,70.0007,26.5091,270.7986,317.6806,0.0027611,0.00033825,0.0,0 STARLINK-5846,1 56492U 23064AW  23338.91667824  .00033825  00000-0  27611-2 0  9993,2 56492  70.0007  26.5091 0002997 270.7986 317.6806 14.99267859  5816,6947.294,96.047,571.241,567.077,0.0
56492.0,STARLINK-5846,PAYLOAD,2023-12-05 14:00:01,14.99281004,0.0003068,70.0008,24.8256,276.5995,309.1442,0.003681,0.00045215,0.0,0 STARLINK-5846,1 56492U 23064AW  23339.58334491  .00045215  00000-0  36810-2 0  9995,2 56492  70.0008  24.8256 0003068 276.5995 309.1442 14.99281004  5927,6947.254,96.046,571.25,566.987,0.0
56492.0,STARLINK-5846,PAYLOAD,2023-12-05 22:00:00,14.99283723,0.0003058,70.001,23.9838,271.5022,312.895,0.0037662,0.00046274,0.0,0 STARLINK-5846,1 56492U 23064AW  23339.91667824  .00046274  00000-0  37662-2 0  9993,2 56492  70.0010  23.9838 0003058 271.5022 312.8950 14.99283723 33040,6947.245,96.046,571.235,566.986,0.0
56492.0,STARLINK-5846,PAYLOAD,2023-12-06 14:00:01,14.99292739,0.0003072,70.001,22.3004,275.088,306.6294,0.00031782,3.796e-05,0.0,0 STARLINK-5846,1 56492U 23064AW  23340.58334491  .00003796  00000-0  31782-3 0  9999,2 56492  70.0010  22.3004 0003072 275.0880 306.6294 14.99292739 33145,6947.217,96.045,571.216,566.948,0.0
56492.0,STARLINK-5846,PAYLOAD,2023-12-06 22:00:00,14.99265195,0.0003055,70.0011,21.4587,269.2508,311.1171,0.0041804,0.00051386,0.0,0 STARLINK-5846,1 56492U 23064AW  23340.91667824  .00051386  00000-0  41804-2 0  9998,2 56492  70.0011  21.4587 0003055 269.2508 311.1171 14.99265195  5640,6947.302,96.047,571.29,567.045,0.0
56492.0,STARLINK-5846,PAYLOAD,2023-12-07 14:00:01,14.99297676,0.000297,70.001,19.7754,275.6167,302.0822,0.00082602,0.00010027,0.0,0 STARLINK-5846,1 56492U 23064AW  23341.58335648  .00010027  00000-0  82602-3 0  9997,2 56492  70.0010  19.7754 0002970 275.6167 302.0822 14.99297676 33295,6947.202,96.045,571.13,567.004,0.0
56492.0,STARLINK-5846,PAYLOAD,2023-12-07 22:00:00,14.99458452,0.0002961,70.0011,18.9335,267.8712,308.3995,-0.069369,-0.00795642,0.0,0 STARLINK-5846,1 56492U 23064AW  23341.91667824 -.00795642  00000-0 -69369-1 0  9996,2 56492  70.0011  18.9335 0002961 267.8712 308.3995 14.99458452 33348,6946.705,96.035,570.627,566.514,0.0
56492.0,STARLINK-5846,PAYLOAD,2023-12-08 03:26:40,14.99244979,0.0003426,70.0007,18.3626,281.1605,78.9169,-0.00062494,-7.721e-05,0.0,0 STARLINK-5846,1 56492U 23064AW  23342.14352950 -.00007721  00000-0 -62494-3 0  9991,2 56492  70.0007  18.3626 0003426 281.1605  78.9169 14.99244979 33381,6947.365,96.048,571.61,566.85,0.0
